[{"OBJECT_NAME":"STARLINK-30821","OBJECT_ID":"2023-167G","EPOCH":"2026-03-08T11:43:15.836736","MEAN_MOTION":15.26757242,"ECCENTRICITY":0.00011052,"INCLINATION":42.9974,"RA_OF_ASC_NODE":149.9789,"ARG_OF_PERICENTER":242.9585,"MEAN_ANOMALY":117.1154,"EPHEMERIS_TYPE":0,"CLASSIFICATION_TYPE":"U","NORAD_CAT_ID":58181,"ELEMENT_SET_NO":999,"REV_AT_EPOCH":13079,"BSTAR":0.00013541025,"MEAN_MOTION_DOT":3.376e-5,"MEAN_MOTION_DDOT":0},{"OBJECT_NAME":"CZ-2C DEB","OBJECT_ID":"2011-030E","EPOCH":"2026-03-09T22:02:28.057920","MEAN_MOTION":15.23147202,"ECCENTRICITY":0.00216086,"INCLINATION":98.1958,"RA_OF_ASC_NODE":48.5667,"ARG_OF_PERICENTER":313.6999,"MEAN_ANOMALY":74.4133,"EPHEMERIS_TYPE":0,"CLASSIFICATION_TYPE":"U","NORAD_CAT_ID":37734,"ELEMENT_SET_NO":999,"REV_AT_EPOCH":78227,"BSTAR":0.0029824689,"MEAN_MOTION_DOT":0.00071429,"MEAN_MOTION_DDOT":0}]
